{"fetched_at":"2026-04-05T05:47:15Z","count":17019,"tles":[{"name":"UNKNOWN","line1":"1 81439U          26092.93866079  .00000382  00000+0  12101-2 0  9991","line2":"2 81439  67.1590 286.7865 0596393 134.4971 230.6421 12.62684224275932","category":"Other"},{"name":"UNKNOWN","line1":"1 81449U          26093.18780743  .00375366  00000+0  13089-1 0  9995","line2":"2 81449  66.7903  21.4435 0012331 359.0773   1.0351 15.27760381650395","category":"Other"},{"name":"UNKNOWN","line1":"1 81478U          26093.73511034  .00008144  00000+0  28670-2 0  9993","line2":"2 81478  98.9507  13.5908 0146085  33.4820  30.1628 14.29283060638932","category":"Other"},{"name":"UNKNOWN","line1":"1 81488U          26093.63018044  .00000392  00000+0  61695-3 0  9998","line2":"2 81488  99.9886 332.9015 0045225  82.0319 306.4772 13.56569756611802","category":"Other"},{"name":"UNKNOWN","line1":"1 81497U          26094.52353801  .00004910  00000+0  43650-2 0  9990","line2":"2 81497 100.2997   5.0138 0029130  82.9384  96.9612 13.85074317231902","category":"Other"},{"name":"UNKNOWN","line1":"1 81499U          26091.52601497  .00002308  00000+0  63081-3 0  9996","line2":"2 81499  74.0502  15.9008 0001649 170.0115 190.1077 14.47834467498306","category":"Other"},{"name":"UNKNOWN","line1":"1 81535U          26092.49381306  .00001953  00000+0  81001-3 0  9995","line2":"2 81535  98.1871 170.6098 0234890 187.7371 172.0155 14.13713517403044","category":"Other"},{"name":"UNKNOWN","line1":"1 81536U          26094.07757174  .00000781  00000+0  50179-2 0  9991","line2":"2 81536 101.9668 321.5145 0026577  57.6891 105.0781 12.56016470565910","category":"Other"},{"name":"UNKNOWN","line1":"1 81537U          26094.63797434  .00000585  00000+0  36700-3 0  9994","line2":"2 81537  71.0381 235.6590 0077737 340.7092  19.1086 14.07176850636348","category":"Other"},{"name":"UNKNOWN","line1":"1 81406U          26094.17876340  .00001417  00000+0  57750-3 0  9995","line2":"2 81406  65.8129 261.6092 0867410 270.2043  79.9741 13.12620240548434","category":"Other"},{"name":"UNKNOWN","line1":"1 81427U          26094.14136251  .00000801  00000+0  48692-3 0  9996","line2":"2 81427  98.7385 337.6244 0085366  81.3739 279.7090 14.07137128567570","category":"Other"},{"name":"UNKNOWN","line1":"1 81438U          26094.64427344  .00003497  00000+0  50851-2 0  9992","line2":"2 81438 100.3287 336.3345 0045114 155.3087 205.0220 13.55352604607231","category":"Other"}]}